[{"OBJECT_NAME":"STARLINK-35209","OBJECT_ID":"2025-210Q","EPOCH":"2026-03-09T23:19:08.679072","MEAN_MOTION":15.30201113,"ECCENTRICITY":0.0001097,"INCLINATION":53.161,"RA_OF_ASC_NODE":305.813,"ARG_OF_PERICENTER":95.5188,"MEAN_ANOMALY":264.5938,"EPHEMERIS_TYPE":0,"CLASSIFICATION_TYPE":"U","NORAD_CAT_ID":65636,"ELEMENT_SET_NO":999,"REV_AT_EPOCH":2777,"BSTAR":0.0010812799,"MEAN_MOTION_DOT":0.00031803,"MEAN_MOTION_DDOT":0},{"OBJECT_NAME":"TRANSPORTER-1 OBJECT L","OBJECT_ID":"2021-006L","EPOCH":"2026-03-09T22:38:42.795168","MEAN_MOTION":15.33192932,"ECCENTRICITY":0.00114726,"INCLINATION":97.2368,"RA_OF_ASC_NODE":117.6447,"ARG_OF_PERICENTER":180.5165,"MEAN_ANOMALY":179.6068,"EPHEMERIS_TYPE":0,"CLASSIFICATION_TYPE":"U","NORAD_CAT_ID":47423,"ELEMENT_SET_NO":999,"REV_AT_EPOCH":28445,"BSTAR":0.00025636794,"MEAN_MOTION_DOT":8.162e-5,"MEAN_MOTION_DDOT":0}]
